*******************************************************************************
Ephemeris / WWW_USER Mon Mar 24 08:49:28 2025 Pasadena, USA      / Horizons    
*******************************************************************************
Target body name: (2018 PU7)                      {source: JPL#13}
Center body name: Earth (399)                     {source: DE441}
Center-site name: Mauna Kea
*******************************************************************************
Start time      : A.D. 2019-Jan-22 04:17:00.0000 UT      
Stop  time      : A.D. 2019-Jan-22 16:49:00.0000 UT      
Step-size       : 1 minutes
*******************************************************************************
Target pole/equ : undefined
Target radii    : undefined                                                    
Center geodetic : 204.5278, 19.8260847, 4.21024   {E-lon(deg),Lat(deg),Alt(km)}
Center cylindric: 204.5278, 6006.35451, 2151.0229 {E-lon(deg),Dxy(km),Dz(km)}
Center pole/equ : ITRF93                          {East-longitude positive}
Center radii    : 6378.137, 6378.137, 6356.752 km {Equator_a, b, pole_c}       
Target primary  : Sun
Vis. interferer : MOON (R_eq= 1737.400) km        {source: DE441}
Rel. light bend : Sun                             {source: DE441}
Rel. lght bnd GM: 1.3271E+11 km^3/s^2                                          
Small-body perts: Yes                             {source: SB441-N16}
Atmos refraction: NO (AIRLESS)
RA format       : HMS
Time format     : CAL 
Calendar mode   : Mixed Julian/Gregorian
RTS-only print  : NO       
EOP file        : eop.250321.p250617                                           
EOP coverage    : DATA-BASED 1962-JAN-20 TO 2025-MAR-21. PREDICTS-> 2025-JUN-16
Units conversion: 1 au= 149597870.700 km, c= 299792.458 km/s, 1 day= 86400.0 s 
Table cut-offs 1: Elevation (-90.0deg=NO ),Airmass (>38.000=NO), Daylight (YES)
Table cut-offs 2: Solar elongation (  0.0,180.0=NO ),Local Hour Angle( 0.0=NO )
Table cut-offs 3: RA/DEC angular rate (     0.0=NO )                           
*******************************************************************************
Initial IAU76/J2000 heliocentric ecliptic osculating elements (au, days, deg.):
  EPOCH=  2458344.5 ! 2018-Aug-14.00 (TDB)         Residual RMS= .35253        
   EC= .5418411610879256   QR= .9908981152950816   TP= 2458306.0483912583      
   OM= 307.3200871504195   W=  329.2166965634538   IN= 6.906215163822786       
  Equivalent ICRF heliocentric cartesian coordinates (au, au/d):
   X= 8.533350742151261E-01  Y=-6.504796009993946E-01  Z=-2.480927258064065E-01
  VX= 1.615085148536055E-02 VY= 9.661045842052620E-03 VZ= 6.810490395822813E-03
Asteroid physical parameters (km, seconds, rotational period in hours):        
   GM= n.a.                RAD= n.a.               ROTPER= n.a.                
   H= 23.4                 G= .150                 B-V= n.a.                   
                           ALBEDO= n.a.            STYP= n.a.                  
*******************************************************************************
 Date__(UT)__HR:MN     R.A._________(ICRF)_________DEC
******************************************************
$$SOE
 2019-Jan-22 06:20  m  00 49 27.588728 +12 37 39.67936
 2019-Jan-22 06:21  m  00 49 27.653343 +12 37 39.98022
 2019-Jan-22 06:22  m  00 49 27.717963 +12 37 40.28107
 2019-Jan-22 06:23  m  00 49 27.782586 +12 37 40.58192
 2019-Jan-22 06:24  m  00 49 27.847213 +12 37 40.88275
 2019-Jan-22 06:25  m  00 49 27.911843 +12 37 41.18357
 2019-Jan-22 06:26  m  00 49 27.976477 +12 37 41.48438
 2019-Jan-22 06:27  m  00 49 28.041115 +12 37 41.78519
 2019-Jan-22 06:28  m  00 49 28.105757 +12 37 42.08598
 2019-Jan-22 06:29  m  00 49 28.170402 +12 37 42.38677
 2019-Jan-22 06:30  m  00 49 28.235051 +12 37 42.68754
 2019-Jan-22 06:31  m  00 49 28.299704 +12 37 42.98831
 2019-Jan-22 06:32  m  00 49 28.364360 +12 37 43.28907
 2019-Jan-22 06:33  m  00 49 28.429020 +12 37 43.58982
 2019-Jan-22 06:34  m  00 49 28.493684 +12 37 43.89056
 2019-Jan-22 06:35  m  00 49 28.558352 +12 37 44.19129
 2019-Jan-22 06:36  m  00 49 28.623023 +12 37 44.49201
 2019-Jan-22 06:37  m  00 49 28.687699 +12 37 44.79272
 2019-Jan-22 06:38  m  00 49 28.752378 +12 37 45.09343
 2019-Jan-22 06:39  m  00 49 28.817061 +12 37 45.39412
 2019-Jan-22 06:40  m  00 49 28.881748 +12 37 45.69481
 2019-Jan-22 06:41  m  00 49 28.946439 +12 37 45.99549
 2019-Jan-22 06:42  m  00 49 29.011133 +12 37 46.29616
 2019-Jan-22 06:43  m  00 49 29.075832 +12 37 46.59682
 2019-Jan-22 06:44  m  00 49 29.140534 +12 37 46.89747
 2019-Jan-22 06:45  m  00 49 29.205241 +12 37 47.19811
 2019-Jan-22 06:46  m  00 49 29.269951 +12 37 47.49875
 2019-Jan-22 06:47  m  00 49 29.334665 +12 37 47.79938
 2019-Jan-22 06:48  m  00 49 29.399383 +12 37 48.10000
 2019-Jan-22 06:49  m  00 49 29.464105 +12 37 48.40061
 2019-Jan-22 06:50  m  00 49 29.528832 +12 37 48.70121
 2019-Jan-22 06:51  m  00 49 29.593562 +12 37 49.00181
 2019-Jan-22 06:52  m  00 49 29.658296 +12 37 49.30239
 2019-Jan-22 06:53  m  00 49 29.723034 +12 37 49.60297
 2019-Jan-22 06:54  m  00 49 29.787776 +12 37 49.90354
 2019-Jan-22 06:55  m  00 49 29.852522 +12 37 50.20411
 2019-Jan-22 06:56  m  00 49 29.917272 +12 37 50.50466
 2019-Jan-22 06:57  m  00 49 29.982027 +12 37 50.80521
 2019-Jan-22 06:58  m  00 49 30.046785 +12 37 51.10575
 2019-Jan-22 06:59  m  00 49 30.111547 +12 37 51.40628
 2019-Jan-22 07:00  m  00 49 30.176314 +12 37 51.70681
 2019-Jan-22 07:01  m  00 49 30.241084 +12 37 52.00732
 2019-Jan-22 07:02  m  00 49 30.305859 +12 37 52.30783
 2019-Jan-22 07:03  m  00 49 30.370638 +12 37 52.60833
 2019-Jan-22 07:04  m  00 49 30.435421 +12 37 52.90883
 2019-Jan-22 07:05  m  00 49 30.500208 +12 37 53.20932
 2019-Jan-22 07:06  m  00 49 30.564999 +12 37 53.50980
 2019-Jan-22 07:07  m  00 49 30.629794 +12 37 53.81027
 2019-Jan-22 07:08  m  00 49 30.694594 +12 37 54.11074
 2019-Jan-22 07:09  m  00 49 30.759398 +12 37 54.41120
 2019-Jan-22 07:10  m  00 49 30.824206 +12 37 54.71165
 2019-Jan-22 07:11  m  00 49 30.889018 +12 37 55.01209
 2019-Jan-22 07:12  m  00 49 30.953834 +12 37 55.31253
 2019-Jan-22 07:13  m  00 49 31.018655 +12 37 55.61296
 2019-Jan-22 07:14  m  00 49 31.083480 +12 37 55.91339
 2019-Jan-22 07:15  m  00 49 31.148309 +12 37 56.21381
 2019-Jan-22 07:16  m  00 49 31.213142 +12 37 56.51422
 2019-Jan-22 07:17  m  00 49 31.277980 +12 37 56.81462
 2019-Jan-22 07:18  m  00 49 31.342821 +12 37 57.11502
 2019-Jan-22 07:19  m  00 49 31.407668 +12 37 57.41541
 2019-Jan-22 07:20  m  00 49 31.472518 +12 37 57.71580
 2019-Jan-22 07:21  m  00 49 31.537373 +12 37 58.01617
 2019-Jan-22 07:22  m  00 49 31.602232 +12 37 58.31655
 2019-Jan-22 07:23  m  00 49 31.667095 +12 37 58.61691
 2019-Jan-22 07:24  m  00 49 31.731963 +12 37 58.91727
 2019-Jan-22 07:25  m  00 49 31.796835 +12 37 59.21763
 2019-Jan-22 07:26  m  00 49 31.861711 +12 37 59.51798
 2019-Jan-22 07:27  m  00 49 31.926592 +12 37 59.81832
 2019-Jan-22 07:28  m  00 49 31.991477 +12 38 00.11865
 2019-Jan-22 07:29  m  00 49 32.056366 +12 38 00.41898
 2019-Jan-22 07:30  m  00 49 32.121260 +12 38 00.71931
 2019-Jan-22 07:31  m  00 49 32.186159 +12 38 01.01963
 2019-Jan-22 07:32  m  00 49 32.251061 +12 38 01.31994
 2019-Jan-22 07:33  m  00 49 32.315968 +12 38 01.62025
 2019-Jan-22 07:34  m  00 49 32.380880 +12 38 01.92055
 2019-Jan-22 07:35  m  00 49 32.445796 +12 38 02.22085
 2019-Jan-22 07:36  m  00 49 32.510716 +12 38 02.52114
 2019-Jan-22 07:37  m  00 49 32.575641 +12 38 02.82142
 2019-Jan-22 07:38  m  00 49 32.640570 +12 38 03.12170
 2019-Jan-22 07:39  m  00 49 32.705503 +12 38 03.42198
 2019-Jan-22 07:40  m  00 49 32.770442 +12 38 03.72225
 2019-Jan-22 07:41  m  00 49 32.835384 +12 38 04.02251
 2019-Jan-22 07:42  m  00 49 32.900331 +12 38 04.32277
 2019-Jan-22 07:43  m  00 49 32.965283 +12 38 04.62303
 2019-Jan-22 07:44  m  00 49 33.030239 +12 38 04.92328
 2019-Jan-22 07:45  m  00 49 33.095199 +12 38 05.22352
 2019-Jan-22 07:46  m  00 49 33.160164 +12 38 05.52376
 2019-Jan-22 07:47  m  00 49 33.225134 +12 38 05.82400
 2019-Jan-22 07:48  m  00 49 33.290108 +12 38 06.12423
 2019-Jan-22 07:49  m  00 49 33.355087 +12 38 06.42445
 2019-Jan-22 07:50  m  00 49 33.420070 +12 38 06.72467
 2019-Jan-22 07:51  m  00 49 33.485057 +12 38 07.02489
 2019-Jan-22 07:52  m  00 49 33.550050 +12 38 07.32510
 2019-Jan-22 07:53  m  00 49 33.615046 +12 38 07.62531
 2019-Jan-22 07:54  m  00 49 33.680048 +12 38 07.92552
 2019-Jan-22 07:55  m  00 49 33.745054 +12 38 08.22572
 2019-Jan-22 07:56  m  00 49 33.810064 +12 38 08.52591
 2019-Jan-22 07:57  m  00 49 33.875079 +12 38 08.82610
 2019-Jan-22 07:58  m  00 49 33.940099 +12 38 09.12629
 2019-Jan-22 07:59  m  00 49 34.005123 +12 38 09.42647
 2019-Jan-22 08:00  m  00 49 34.070152 +12 38 09.72665
 2019-Jan-22 08:01  m  00 49 34.135186 +12 38 10.02683
 2019-Jan-22 08:02  m  00 49 34.200224 +12 38 10.32700
 2019-Jan-22 08:03  m  00 49 34.265266 +12 38 10.62717
 2019-Jan-22 08:04  m  00 49 34.330314 +12 38 10.92733
 2019-Jan-22 08:05  m  00 49 34.395366 +12 38 11.22749
 2019-Jan-22 08:06  m  00 49 34.460422 +12 38 11.52765
 2019-Jan-22 08:07  m  00 49 34.525484 +12 38 11.82780
 2019-Jan-22 08:08  m  00 49 34.590549 +12 38 12.12795
 2019-Jan-22 08:09  m  00 49 34.655620 +12 38 12.42810
 2019-Jan-22 08:10  m  00 49 34.720695 +12 38 12.72824
 2019-Jan-22 08:11  m  00 49 34.785775 +12 38 13.02838
 2019-Jan-22 08:12  m  00 49 34.850859 +12 38 13.32852
 2019-Jan-22 08:13  m  00 49 34.915949 +12 38 13.62866
 2019-Jan-22 08:14  m  00 49 34.981043 +12 38 13.92879
 2019-Jan-22 08:15  m  00 49 35.046141 +12 38 14.22892
 2019-Jan-22 08:16  m  00 49 35.111244 +12 38 14.52904
 2019-Jan-22 08:17  m  00 49 35.176352 +12 38 14.82916
 2019-Jan-22 08:18  m  00 49 35.241465 +12 38 15.12928
 2019-Jan-22 08:19  m  00 49 35.306582 +12 38 15.42940
 2019-Jan-22 08:20  m  00 49 35.371704 +12 38 15.72952
 2019-Jan-22 08:21  m  00 49 35.436831 +12 38 16.02963
 2019-Jan-22 08:22  m  00 49 35.501962 +12 38 16.32974
